[{"OBJECT_NAME":"LEMUR-2-ANDIS","OBJECT_ID":"2017-042P","EPOCH":"2026-03-09T13:25:33.116448","MEAN_MOTION":15.30557934,"ECCENTRICITY":0.0009101,"INCLINATION":97.3659,"RA_OF_ASC_NODE":249.795,"ARG_OF_PERICENTER":4.3248,"MEAN_ANOMALY":355.807,"EPHEMERIS_TYPE":0,"CLASSIFICATION_TYPE":"U","NORAD_CAT_ID":42838,"ELEMENT_SET_NO":999,"REV_AT_EPOCH":47319,"BSTAR":0.00079875,"MEAN_MOTION_DOT":0.00023598,"MEAN_MOTION_DDOT":0},{"OBJECT_NAME":"STARLINK-36339","OBJECT_ID":"2026-003G","EPOCH":"2026-03-09T11:47:49.189920","MEAN_MOTION":15.27598668,"ECCENTRICITY":6.474e-5,"INCLINATION":42.9999,"RA_OF_ASC_NODE":228.1797,"ARG_OF_PERICENTER":275.2817,"MEAN_ANOMALY":84.7961,"EPHEMERIS_TYPE":0,"CLASSIFICATION_TYPE":"U","NORAD_CAT_ID":67340,"ELEMENT_SET_NO":999,"REV_AT_EPOCH":879,"BSTAR":0.0014122757,"MEAN_MOTION_DOT":0.00038827,"MEAN_MOTION_DDOT":0}]
