LEMUR-2-ANDIS           
1 42838U 17042P   26068.55941107  .00023598  00000+0  79875-3 0  9998
2 42838  97.3659 249.7950 0009101   4.3248 355.8070 15.30557934473198
STARLINK-36339          
1 67340U 26003G   26068.49154155  .00038827  00000+0  14123-2 0  9997
2 67340  42.9999 228.1797 0000647 275.2817  84.7961 15.27598668  8795
